{"type": "FeatureCollection", "features": [ {"type": "Feature", "properties": {"norad_id": 54234, "name": "NOAA 21 (JPSS-2)", "group": "weather", "lat": 38.30540428727794, "lon": -90.11925373672467, "alt_km": 822.3354107041732, "timestamp": "2025-12-06T11:28:10.672426+00:00", "meta": {"OBJECT_NAME": "NOAA 21 (JPSS-2)", "OBJECT_ID": "2022-150A", "EPOCH": "2025-12-05T21:45:14.565312", "MEAN_MOTION": 14.19521201, "ECCENTRICITY": 0.00024533, "INCLINATION": 98.7452, "RA_OF_ASC_NODE": 276.3003, "ARG_OF_PERICENTER": 50.8337, "MEAN_ANOMALY": 309.3057, "EPHEMERIS_TYPE": 0, "CLASSIFICATION_TYPE": "U", "NORAD_CAT_ID": 54234, "ELEMENT_SET_NO": 999, "REV_AT_EPOCH": 15912, "BSTAR": 0.00011347824, "MEAN_MOTION_DOT": 1.95e-06, "MEAN_MOTION_DDOT": 0}, "tle": {"line1": "1 54234U 22150A   25339.90641858  .00000195  00000+0  11348-3 0  9995", "line2": "2 54234  98.7452 276.3003 0002453  50.8337 309.3057 14.19521201159127"}}, "geometry": {"type": "Point", "coordinates": [-90.11925373672467, 38.30540428727794]}}, {"type": "Feature", "properties": {"norad_id": 54743, "name": "METEOSAT-12 (MTG-I1)", "group": "weather", "lat": -0.457817614379592, "lon": -112.71043324939033, "alt_km": 35778.87262063288, "timestamp": "2025-12-06T11:28:10.672438+00:00", "meta": {"OBJECT_NAME": "METEOSAT-12 (MTG-I1)", "OBJECT_ID": "2022-170C", "EPOCH": "2025-12-05T22:15:22.574304", "MEAN_MOTION": 1.00274183, "ECCENTRICITY": 0.00015546, "INCLINATION": 0.7216, "RA_OF_ASC_NODE": 30.491, "ARG_OF_PERICENTER": 220.2018, "MEAN_ANOMALY": 157.8632, "EPHEMERIS_TYPE": 0, "CLASSIFICATION_TYPE": "U", "NORAD_CAT_ID": 54743, "ELEMENT_SET_NO": 999, "REV_AT_EPOCH": 1104, "BSTAR": 0, "MEAN_MOTION_DOT": 2e-08, "MEAN_MOTION_DDOT": 0}, "tle": {"line1": "1 54743U 22170C   25339.92734461  .00000002  00000+0  00000+0 0  9993", "line2": "2 54743   0.7216  30.4910 0001554 220.2018 157.8632  1.00274183 11042"}}, "geometry": {"type": "Point", "coordinates": [-112.71043324939033, -0.457817614379592]}}, {"type": "Feature", "properties": {"norad_id": 55973, "name": "TIANMU-1 03", "group": "weather", "lat": 63.271799797563, "lon": -21.85513101729966, "alt_km": 435.59014376257073, "timestamp": "2025-12-06T11:28:10.672449+00:00", "meta": {"OBJECT_NAME": "TIANMU-1 03", "OBJECT_ID": "2023-039A", "EPOCH": "2025-12-05T22:29:57.068448", "MEAN_MOTION": 15.40625886, "ECCENTRICITY": 0.00045139, "INCLINATION": 97.5107, "RA_OF_ASC_NODE": 142.4007, "ARG_OF_PERICENTER": 80.6785, "MEAN_ANOMALY": 279.4971, "EPHEMERIS_TYPE": 0, "CLASSIFICATION_TYPE": "U", "NORAD_CAT_ID": 55973, "ELEMENT_SET_NO": 999, "REV_AT_EPOCH": 15101, "BSTAR": 0.00054505357, "MEAN_MOTION_DOT": 0.00022155, "MEAN_MOTION_DDOT": 0}, "tle": {"line1": "1 55973U 23039A   25339.93746607  .00022155  00000+0  54505-3 0  9996", "line2": "2 55973  97.5107 142.4007 0004513  80.6785 279.4971 15.40625886151017"}}, "geometry": {"type": "Point", "coordinates": [-21.85513101729966, 63.271799797563]}}, {"type": "Feature", "properties": {"norad_id": 55974, "name": "TIANMU-1 04", "group": "weather", "lat": -41.77080422428863, "lon": -44.61193302780921, "alt_km": 452.88542303486975, "timestamp": "2025-12-06T11:28:10.672459+00:00", "meta": {"OBJECT_NAME": "TIANMU-1 04", "OBJECT_ID": "2023-039B", "EPOCH": "2025-12-05T22:02:28.388832", "MEAN_MOTION": 15.40956895, "ECCENTRICITY": 0.00052266, "INCLINATION": 97.5039, "RA_OF_ASC_NODE": 141.575, "ARG_OF_PERICENTER": 76.7656, "MEAN_ANOMALY": 283.4173, "EPHEMERIS_TYPE": 0, "CLASSIFICATION_TYPE": "U", "NORAD_CAT_ID": 55974, "ELEMENT_SET_NO": 999, "REV_AT_EPOCH": 15101, "BSTAR": 0.00054013266, "MEAN_MOTION_DOT": 0.00022199, "MEAN_MOTION_DDOT": 0}, "tle": {"line1": "1 55974U 23039B   25339.91838413  .00022199  00000+0  54013-3 0  9994", "line2": "2 55974  97.5039 141.5750 0005226  76.7656 283.4173 15.40956895151018"}}, "geometry": {"type": "Point", "coordinates": [-44.61193302780921, -41.77080422428863]}}, {"type": "Feature", "properties": {"norad_id": 55975, "name": "TIANMU-1 05", "group": "weather", "lat": -79.39005097479611, "lon": -82.11683878774001, "alt_km": 454.56970762591027, "timestamp": "2025-12-06T11:28:10.672472+00:00", "meta": {"OBJECT_NAME": "TIANMU-1 05", "OBJECT_ID": "2023-039C", "EPOCH": "2025-12-05T23:25:19.071552", "MEAN_MOTION": 15.40586288, "ECCENTRICITY": 0.00043625, "INCLINATION": 97.5086, "RA_OF_ASC_NODE": 142.1261, "ARG_OF_PERICENTER": 97.6491, "MEAN_ANOMALY": 262.5251, "EPHEMERIS_TYPE": 0, "CLASSIFICATION_TYPE": "U", "NORAD_CAT_ID": 55975, "ELEMENT_SET_NO": 999, "REV_AT_EPOCH": 15100, "BSTAR": 0.00053152153, "MEAN_MOTION_DOT": 0.00021573, "MEAN_MOTION_DDOT": 0}, "tle": {"line1": "1 55975U 23039C   25339.97591518  .00021573  00000+0  53152-3 0  9991", "line2": "2 55975  97.5086 142.1261 0004362  97.6491 262.5251 15.40586288151003"}}, "geometry": {"type": "Point", "coordinates": [-82.11683878774001, -79.39005097479611]}}, {"type": "Feature", "properties": {"norad_id": 55976, "name": "TIANMU-1 06", "group": "weather", "lat": -28.736053042205118, "lon": -41.04631978379628, "alt_km": 450.51101550758085, "timestamp": "2025-12-06T11:28:10.672483+00:00", "meta": {"OBJECT_NAME": "TIANMU-1 06", "OBJECT_ID": "2023-039D", "EPOCH": "2025-12-05T22:05:56.279328", "MEAN_MOTION": 15.41009777, "ECCENTRICITY": 0.0004707, "INCLINATION": 97.5096, "RA_OF_ASC_NODE": 142.529, "ARG_OF_PERICENTER": 93.2886, "MEAN_ANOMALY": 266.8899, "EPHEMERIS_TYPE": 0, "CLASSIFICATION_TYPE": "U", "NORAD_CAT_ID": 55976, "ELEMENT_SET_NO": 999, "REV_AT_EPOCH": 15101, "BSTAR": 0.00053961519, "MEAN_MOTION_DOT": 0.00022214, "MEAN_MOTION_DDOT": 0}, "tle": {"line1": "1 55976U 23039D   25339.92079027  .00022214  00000+0  53962-3 0  9995", "line2": "2 55976  97.5096 142.5290 0004707  93.2886 266.8899 15.41009777151014"}}, "geometry": {"type": "Point", "coordinates": [-41.04631978379628, -28.736053042205118]}}, {"type": "Feature", "properties": {"norad_id": 56232, "name": "FENGYUN 3G", "group": "weather", "lat": -27.014210862496093, "lon": -125.59889451690228, "alt_km": 416.64135516824535, "timestamp": "2025-12-06T11:28:10.672493+00:00", "meta": {"OBJECT_NAME": "FENGYUN 3G", "OBJECT_ID": "2023-055A", "EPOCH": "2025-12-05T23:16:21.940032", "MEAN_MOTION": 15.5304505, "ECCENTRICITY": 0.00092166, "INCLINATION": 49.9948, "RA_OF_ASC_NODE": 262.3755, "ARG_OF_PERICENTER": 116.1337, "MEAN_ANOMALY": 244.058, "EPHEMERIS_TYPE": 0, "CLASSIFICATION_TYPE": "U", "NORAD_CAT_ID": 56232, "ELEMENT_SET_NO": 999, "REV_AT_EPOCH": 14997, "BSTAR": 0.00068773263, "MEAN_MOTION_DOT": 0.00043672, "MEAN_MOTION_DDOT": 0}, "tle": {"line1": "1 56232U 23055A   25339.96969838  .00043672  00000+0  68773-3 0  9998", "line2": "2 56232  49.9948 262.3755 0009216 116.1337 244.0580 15.53045050149974"}}, "geometry": {"type": "Point", "coordinates": [-125.59889451690228, -27.014210862496093]}}, {"type": "Feature", "properties": {"norad_id": 57166, "name": "METEOR-M2 3", "group": "weather", "lat": -24.013238648542856, "lon": -149.75712847405697, "alt_km": 820.3083474336827, "timestamp": "2025-12-06T11:28:10.672503+00:00", "meta": {"OBJECT_NAME": "METEOR-M2 3", "OBJECT_ID": "2023-091A", "EPOCH": "2025-12-05T22:42:34.429248", "MEAN_MOTION": 14.24024829, "ECCENTRICITY": 0.00042775, "INCLINATION": 98.6388, "RA_OF_ASC_NODE": 33.604, "ARG_OF_PERICENTER": 27.3215, "MEAN_ANOMALY": 332.8188, "EPHEMERIS_TYPE": 0, "CLASSIFICATION_TYPE": "U", "NORAD_CAT_ID": 57166, "ELEMENT_SET_NO": 999, "REV_AT_EPOCH": 12701, "BSTAR": 5.1404185e-05, "MEAN_MOTION_DOT": 7.5e-07, "MEAN_MOTION_DDOT": 0}, "tle": {"line1": "1 57166U 23091A   25339.94623182  .00000075  00000+0  51404-4 0  9996", "line2": "2 57166  98.6388  33.6040 0004277  27.3215 332.8188 14.24024829127015"}}, "geometry": {"type": "Point", "coordinates": [-149.75712847405697, -24.013238648542856]}}, {"type": "Feature", "properties": {"norad_id": 57399, "name": "TIANMU-1 07", "group": "weather", "lat": -31.23680000878525, "lon": -153.98530488931343, "alt_km": 489.7253687097982, "timestamp": "2025-12-06T11:28:10.672513+00:00", "meta": {"OBJECT_NAME": "TIANMU-1 07", "OBJECT_ID": "2023-101A", "EPOCH": "2025-12-05T21:58:24.757248", "MEAN_MOTION": 15.27922157, "ECCENTRICITY": 0.00056237, "INCLINATION": 97.2884, "RA_OF_ASC_NODE": 29.9168, "ARG_OF_PERICENTER": 98.6284, "MEAN_ANOMALY": 261.5593, "EPHEMERIS_TYPE": 0, "CLASSIFICATION_TYPE": "U", "NORAD_CAT_ID": 57399, "ELEMENT_SET_NO": 999, "REV_AT_EPOCH": 13211, "BSTAR": 0.00041270113, "MEAN_MOTION_DOT": 0.00011184, "MEAN_MOTION_DDOT": 0}, "tle": {"line1": "1 57399U 23101A   25339.91556432  .00011184  00000+0  41270-3 0  9998", "line2": "2 57399  97.2884  29.9168 0005623  98.6284 261.5593 15.27922157132111"}}, "geometry": {"type": "Point", "coordinates": [-153.98530488931343, -31.23680000878525]}}, {"type": "Feature", "properties": {"norad_id": 57400, "name": "TIANMU-1 08", "group": "weather", "lat": 32.96400416238496, "lon": 25.5054866513096, "alt_km": 478.13375047731734, "timestamp": "2025-12-06T11:28:10.672523+00:00", "meta": {"OBJECT_NAME": "TIANMU-1 08", "OBJECT_ID": "2023-101B", "EPOCH": "2025-12-05T22:45:00.906624", "MEAN_MOTION": 15.27907775, "ECCENTRICITY": 0.00075363, "INCLINATION": 97.2873, "RA_OF_ASC_NODE": 29.7477, "ARG_OF_PERICENTER": 102.7298, "MEAN_ANOMALY": 257.4785, "EPHEMERIS_TYPE": 0, "CLASSIFICATION_TYPE": "U", "NORAD_CAT_ID": 57400, "ELEMENT_SET_NO": 999, "REV_AT_EPOCH": 13211, "BSTAR": 0.00041880877, "MEAN_MOTION_DOT": 0.0001135, "MEAN_MOTION_DDOT": 0}, "tle": {"line1": "1 57400U 23101B   25339.94792716  .00011350  00000+0  41881-3 0  9994", "line2": "2 57400  97.2873  29.7477 0007536 102.7298 257.4785 15.27907775132116"}}, "geometry": {"type": "Point", "coordinates": [25.5054866513096, 32.96400416238496]}}]}